STARLINK-30278          
1 57668U 23124F   26068.69910428  .00000867  00000+0  41404-4 0  9992
2 57668  53.1615 206.9968 0001241  72.6080 287.5057 15.30195609143568
XCUBE-1                 
1 62400U 24247Z   26068.48297321  .00009773  00000+0  36224-3 0  9994
2 62400  44.9938 117.7807 0005235 331.1499  28.9094 15.27910558 67702
